satname,norad_id,inclination_deg,eccentricity,mean_motion_rev_per_day,perigee_km,apogee_km,l1,l2
STARLINK-1309,45414,53.0564,0.0003404,15.78045177,333.6942289833614,338.26519964246563,1 45414U 20019BG  26204.20690920  .00087574  00000+0  50310-3 0  9994,2 45414  53.0564 177.2924 0003404  70.2282 289.9104 15.78045177351273
STARLINK-1316,45415,53.1525,0.0001971,15.42821516,436.44322844517865,439.13006554682397,1 45415U 20019BH  26204.42015235  .00045052  00000+0  10159-2 0  9990,2 45415  53.1525 212.6558 0001971 344.6828  15.4118 15.42821516350861
STARLINK-1286,45417,53.0419,0.000688,15.69300762,356.26163127338896,365.5345435536701,1 45417U 20019BK  26204.34805668  .00070009  00000+0  58699-3 0  9992,2 45417  53.0419 190.4330 0006880  46.7475 313.4114 15.69300762351397
STARLINK-1308,45419,53.0429,0.0002835,15.70068511,356.7911308100993,360.6109179699297,1 45419U 20019BM  26204.40127295  .00052264  00000+0  42705-3 0  9998,2 45419  53.0429 209.1550 0002835 141.7820 218.3397 15.70068511350882
STARLINK-1329,45531,53.0387,0.0003286,15.79691571,329.1090979926739,333.51854907390043,1 45531U 20025A   26204.02128752  .00103323  00000+0  54947-3 0  9991,2 45531  53.0387 131.9109 0003286  59.2938 300.8406 15.79691571346718
STARLINK-1338,45532,53.0404,0.0002734,15.76169351,339.46861906270533,343.14281033910265,1 45532U 20025B   26204.78917402  .00014129  00000+0  92392-4 0  9995,2 45532  53.0404 136.0021 0002734  75.9103 284.2220 15.76169351346727
STARLINK-1350,45535,53.0698,0.0003664,15.40844896,441.11496088112835,446.1139403441384,1 45535U 20025E   26204.48166434  .00032444  00000+0  78520-3 0  9992,2 45535  53.0698 113.6474 0003664 240.4921 119.5718 15.40844896347052
STARLINK-1362,45538,53.1533,0.0005523,15.41074775,439.1687638815529,446.7033211643238,1 45538U 20025H   26204.24914543  .00038947  00000+0  93255-3 0  9997,2 45538  53.1533 186.3508 0005523  19.3357 340.7857 15.41074775346009
STARLINK-1368,45540,53.1542,0.000496,15.41411429,438.56006979046924,445.3255889812199,1 45540U 20025K   26204.38624514  .00042678  00000+0  10092-2 0  9994,2 45540  53.1542 186.0057 0004960  15.6827 344.4332 15.41411429346014
STARLINK-1371,45542,53.0404,0.0002576,15.72938005,348.77193854240704,352.2385350227978,1 45542U 20025M   26204.54729573  .00069466  00000+0  50070-3 0  9990,2 45542  53.0404 148.0831 0002576  91.6928 268.4385 15.72938005346535
STARLINK-1372,45543,53.1545,0.0004581,15.41807244,437.65179505586457,443.8992827239954,1 45543U 20025N   26204.33170382  .00043558  00000+0  10163-2 0  9998,2 45543  53.1545 185.6162 0004581  12.4902 347.6216 15.41807244345110
STARLINK-1373,45544,53.0406,0.0003047,15.74752542,343.286802049799,347.3840861572371,1 45544U 20025P   26204.11996816  .00077074  00000+0  51296-3 0  9996,2 45544  53.0406 144.7016 0003047  84.4048 275.7318 15.74752542346544
STARLINK-1327,45555,53.0376,0.000219,15.76878313,337.82041301423124,340.76264671031095,1 45555U 20025AA  26204.14564225  .00081871  00000+0  49603-3 0  9995,2 45555  53.0376 121.5235 0002190 127.6881 232.4337 15.76878313346864
STARLINK-1356,45564,53.0403,0.0004503,15.69014385,358.6831129382508,364.7530264140014,1 45564U 20025AK  26204.07959044  .00062692  00000+0  53322-3 0  9997,2 45564  53.0403 136.9408 0004503  70.7404 289.4099 15.69014385346642
STARLINK-1357,45565,53.0413,0.0001822,15.74692902,344.28015884946126,346.73025406949546,1 45565U 20025AL  26203.96856794  .00081702  00000+0  54468-3 0  9998,2 45565  53.0413  92.5702 0001822 260.2680  99.8133 15.74692902347265
STARLINK-1361,45567,53.0394,0.0002301,15.73154132,348.34082978276365,351.43706732428745,1 45567U 20025AN  26204.83776556  .00064021  00000+0  45788-3 0  9994,2 45567  53.0394 130.7368 0002301 109.1669 250.9597 15.73154132346809
STARLINK-1376,45570,53.1545,0.0002703,15.42278676,437.54312281288094,441.2286756922158,1 45570U 20025AR  26204.29590345  .00022107  00000+0  51393-3 0  9996,2 45570  53.1545 162.0440 0002703  37.3762 322.7431 15.42278676346343
STARLINK-1320,45572,53.0306,0.0005692,16.10690934,241.17869502529447,248.71841562147438,1 45572U 20025AT  26204.58007965  .00679868  26047-3  67267-3 0  9993,2 45572  53.0306  20.3506 0005692 281.3821  78.6573 16.10690934348331
STARLINK-1321,45573,53.04,0.0001252,15.73523623,347.9934511966767,349.6778851527888,1 45573U 20025AU  26204.13343349  .00061613  00000+0  43408-3 0  9995,2 45573  53.0400 117.9583 0001252 136.0398 224.0720 15.73523623346616
STARLINK-1331,45578,53.0425,0.0001708,15.7334076,348.20783457810285,350.5059464911101,1 45578U 20025AZ  26204.86253212  .00064579  00000+0  45816-3 0  9998,2 45578  53.0425 121.3416 0001708 117.0548 243.0644 15.73340760346945
STARLINK-1333,45580,53.1537,0.0004413,15.3928803,445.200975629401,451.2259125313467,1 45580U 20025BB  26204.30352654  .00045800  00000+0  11604-2 0  9993,2 45580  53.1537 164.5065 0004413  30.6278 329.4984 15.39288030346318
STARLINK-1335,45581,53.1519,0.0003742,15.40839131,441.0787604175912,446.1841719376789,1 45581U 20025BC  26204.28430209  .00048437  00000+0  11653-2 0  9997,2 45581  53.1519 160.7715 0003742   4.3485 355.7552 15.40839131346354
STARLINK-1337,45582,53.0408,0.0001738,15.81640965,324.6345533147405,326.96484171079555,1 45582U 20025BD  26204.86006720  .00106190  00000+0  51624-3 0  9993,2 45582  53.0408 107.8671 0001738 174.8639 185.2401 15.81640965347115
STARLINK-1347,45586,53.0369,0.0001177,15.73392528,348.41751504569675,350.00113237029836,1 45586U 20025BH  26202.70127445  .00070660  00000+0  49943-3 0  9999,2 45586  53.0369  91.3832 0001177 101.5504 258.5646 15.73392528347155
STARLINK-1364,45589,53.039,0.0003883,15.74378463,343.7892810981157,349.0115568576948,1 45589U 20025BL  26204.46507520  .00077103  00000+0  52144-3 0  9999,2 45589  53.0390 119.0786 0003883  84.8354 275.3107 15.74378463346926
STARLINK-1365,45590,53.0417,0.0002691,15.69223329,359.3062424517757,362.93331044886054,1 45590U 20025BM  26204.89170360  .00046034  00000+0  39039-3 0  9993,2 45590  53.0417 153.1659 0002691  79.8499 280.2820 15.69223329346501
STARLINK-1443,45660,53.1322,0.0002671,15.35871322,456.5076312898527,460.1596739124725,1 45660U 20035D   26204.84551851  .00039713  00000+0  11262-2 0  9998,2 45660  53.1322 151.5566 0002671  84.0897 276.0410 15.35871322339619
STARLINK-1446,45663,53.021,0.0002447,15.50199942,414.4792371578078,417.80435720114747,1 45663U 20035G   26204.66292389  .00028026  00000+0  49437-3 0  9990,2 45663  53.0210  70.0367 0002447  44.3028 315.8175 15.50199942340718
STARLINK-1448,45665,53.0387,0.0001654,15.78828953,332.6473296024542,334.86762429542796,1 45665U 20035J   26204.86604623  .00103636  00000+0  57314-3 0  9996,2 45665  53.0387 103.6226 0001654 170.4298 189.6754 15.78828953340251
STARLINK-1451,45668,53.0517,0.0002717,15.16097956,515.773686782406,519.5208559554685,1 45668U 20035M   26204.34021181  .00021686  00000+0  11250-2 0  9996,2 45668  53.0517 170.6001 0002717  37.4151 322.7031 15.16097956339287
STARLINK-1452,45669,53.0213,0.0006383,15.65522905,367.4268673906781,376.04375438275656,1 45669U 20035N   26204.06515886  .00054270  00000+0  53266-3 0  9995,2 45669  53.0213  86.4688 0006383  99.6657 260.5079 15.65522905340431
STARLINK-1453,45670,53.0352,0.0003039,15.79935223,328.5852082128531,332.6627931490675,1 45670U 20035P   26204.81553772  .00112655  00000+0  59155-3 0  9991,2 45670  53.0352  63.9296 0003039 229.9457 130.1298 15.79935223340704
STARLINK-1454,45671,53.0421,0.0001178,15.77140109,337.7569146497899,339.3393656688113,1 45671U 20035Q   26204.72725885  .00094695  00000+0  56569-3 0  9997,2 45671  53.0421 106.0878 0001178 149.7500 210.3588 15.77140109340204
STARLINK-1456,45673,53.0391,0.0001176,15.72959499,349.6526589954783,351.2352212325941,1 45673U 20035S   26204.01521284  .00080229  00000+0  57639-3 0  9995,2 45673  53.0391 105.1533 0001176 135.9609 224.1502 15.72959499340175
STARLINK-1458,45675,53.0422,0.0001543,15.69274787,359.9326066672111,362.01229584386874,1 45675U 20035U   26204.78292875  .00061202  00000+0  51540-3 0  9997,2 45675  53.0422 118.6759 0001543  98.3559 261.7633 15.69274787340016
STARLINK-1460,45676,53.1545,0.0004552,15.39097093,445.6703953771639,451.88561879961617,1 45676U 20035V   26204.86972095  .00025898  00000+0  66638-3 0  9991,2 45676  53.1545 149.0980 0004552  58.6262 301.5188 15.39097093339613
STARLINK-1392,45677,53.1498,0.0005228,15.42573807,434.9525558270034,442.0800485197551,1 45677U 20035W   26204.13695789  .00052234  00000+0  11847-2 0  9999,2 45677  53.1498 150.0503 0005228  46.8650 313.2792 15.42573807339577
STARLINK-1394,45679,53.0382,8.25e-05,15.71403408,354.32974288309015,355.4406915489308,1 45679U 20035Y   26204.68573245  .00061895  00000+0  47701-3 0  9995,2 45679  53.0382  92.4696 0000825 156.3051 203.8005 15.71403408340408
STARLINK-1402,45685,53.04,7.22e-05,15.68348171,363.1398480284033,364.113358692729,1 45685U 20035AE  26204.40569574  .00053981  00000+0  47321-3 0  9997,2 45685  53.0400  86.5006 0000722 168.4265 191.6767 15.68348171340479
STARLINK-1404,45686,53.1541,0.0004973,15.48723039,417.0796369386089,423.84152209119384,1 45686U 20035AF  26204.07964427  .00061852  00000+0  11340-2 0  9994,2 45686  53.1541 129.9955 0004973  35.8853 324.2489 15.48723039339857
STARLINK-1413,45689,53.1548,0.000515,15.3867934,446.49712983569134,453.5301249819231,1 45689U 20035AJ  26204.13425427  .00022017  00000+0  57604-3 0  9990,2 45689  53.1548 137.2592 0005150  45.1591 314.9831 15.38679340339678
STARLINK-1417,45693,53.0494,0.0003186,15.18748333,507.4279125271232,511.81679278663523,1 45693U 20035AN  26204.88720966  .00007034  00000+0  34924-3 0  9995,2 45693  53.0494 153.9157 0003186 350.8218   9.2718 15.18748333339555
STARLINK-1420,45695,53.042,0.0001258,15.75914112,341.185829811885,342.8766241377916,1 45695U 20035AQ  26204.08229301  .00090105  00000+0  56864-3 0  9994,2 45695  53.0420  77.4094 0001258 221.4988 138.5935 15.75914112340564
